STARLINK-36404          
1 67664U 26022S   26063.11636160  .00067585  00000+0  44918-3 0  9991
2 67664  97.2831  96.8479 0001514  77.7975 282.3460 15.75253123  4673
STARLINK-36399          
1 67665U 26022T   26063.05212598  .00268939  00000+0  17378-2 0  9995
2 67665  97.2835  96.7825 0002496 146.7387 213.4036 15.75321589  4661
STARLINK-36365          
1 67666U 26022U   26063.05071814  .00204261  00000+0  13331-2 0  9993
2 67666  97.2843  96.7852 0001242 111.6840 248.4558 15.75271770  4667
STARLINK-36622          
1 67667U 26022V   26063.04895308  .00450382  00000+0  28383-2 0  9995
2 67667  97.2837  96.7873 0001976 156.5347 203.6009 15.75398908  4665
STARLINK-36625          
1 67668U 26022W   26063.42871247  .00499616  00000+0  31370-2 0  9997
2 67668  97.2834  97.1888 0001950  21.6123 338.5225 15.75348374  4727
STARLINK-36639          
1 67669U 26022X   26063.04577706  .00488447  00000+0  30623-2 0  9999
2 67669  97.2837  96.7914 0002014 147.8503 212.2886 15.75413914  4668
STARLINK-36596          
1 67670U 26022Y   26063.55223033  .00293164  00000+0  18875-2 0  9993
2 67670  97.2830  97.3266 0000981  36.7043 323.4289 15.75338893  4749
STARLINK-36297          
1 67671U 26022Z   26063.04189487  .00354498  00000+0  22646-2 0  9991
2 67671  97.2837  96.7970 0000809 158.5022 201.6277 15.75348738  4665
STARLINK-36616          
1 67672U 26022AA  26063.42448316  .00389445  00000+0  24849-2 0  9990
2 67672  97.2833  97.1947 0001183  49.7325 310.4043 15.75280254  4729
COSMOS 2600             
1 67674U 26023A   26063.59418280  .00087901  00000+0  40773-3 0  9995
2 67674  96.6437 139.3985 0002285 357.3768   2.7491 15.83192314  4241
2026-023B               
1 67675U 26023B   26063.39805439  .00017809  00000+0  75835-3 0  9997
2 67675  96.6368 136.9588 0019232 149.8660 210.3690 15.22849981  4051
2026-023C               
1 67676U 26023C   26063.46244054  .00018268  00000+0  77493-3 0  9998
2 67676  96.6403 137.0391 0020297 140.0758 220.1978 15.22954337  4229
2026-023D               
1 67677U 26023D   26063.46492609  .00017357  00000+0  74039-3 0  9991
2 67677  96.6434 137.0274 0020512 144.9251 215.3343 15.22772595  4052
2026-023F               
1 67679U 26023F   26063.65747905  .00019180  00000+0  80892-3 0  9996
2 67679  96.6334 139.6828 0022211 138.7205 221.5719 15.23103327  4074
